{
  "type": "FeatureCollection",
  "features": [
    {
      "type": "Feature",
      "properties": {
        "norad_id": 66731,
        "name": "FLOCK 4H-28",
        "group": "last-30-days",
        "lat": -18.907257923959268,
        "lon": -115.03346766282431,
        "alt_km": 518.9065628303833,
        "timestamp": "2025-12-21T22:41:40.164749+00:00",
        "meta_object_name": "FLOCK 4H-28",
        "meta_object_id": "2025-276BT",
        "meta_epoch": "2025-12-21T10:44:21.388128",
        "meta_mean_motion": 15.17121778,
        "meta_eccentricity": 0.00032093,
        "meta_inclination": 97.439,
        "meta_ra_of_asc_node": 67.0426,
        "meta_arg_of_pericenter": 269.706,
        "meta_mean_anomaly": 90.3806,
        "meta_ephemeris_type": 0,
        "meta_classification_type": "U",
        "meta_norad_cat_id": 66731,
        "meta_element_set_no": 999,
        "meta_rev_at_epoch": 344,
        "meta_bstar": 0.00033855829,
        "meta_mean_motion_dot": 6.648e-05,
        "meta_mean_motion_ddot": 0,
        "tle_line1": "1 66731U 25276BT  25355.44746977  .00006648  00000+0  33856-3 0  9994",
        "tle_line2": "2 66731  97.4390  67.0426 0003209 269.7060  90.3806 15.17121778  3443"
      },
      "geometry": {
        "type": "Point",
        "coordinates": [
          -115.03346766282431,
          -18.907257923959268
        ]
      }
    },
    {
      "type": "Feature",
      "properties": {
        "norad_id": 66732,
        "name": "FLOCK 4H-29",
        "group": "last-30-days",
        "lat": -30.94852915277982,
        "lon": -116.95805147640068,
        "alt_km": 517.8703305014642,
        "timestamp": "2025-12-21T22:41:40.164759+00:00",
        "meta_object_name": "FLOCK 4H-29",
        "meta_object_id": "2025-276BU",
        "meta_epoch": "2025-12-21T12:16:15.358368",
        "meta_mean_motion": 15.17382579,
        "meta_eccentricity": 0.00025384,
        "meta_inclination": 97.4354,
        "meta_ra_of_asc_node": 67.1071,
        "meta_arg_of_pericenter": 213.9664,
        "meta_mean_anomaly": 146.1407,
        "meta_ephemeris_type": 0,
        "meta_classification_type": "U",
        "meta_norad_cat_id": 66732,
        "meta_element_set_no": 999,
        "meta_rev_at_epoch": 345,
        "meta_bstar": 0.0041159892,
        "meta_mean_motion_dot": 0.00083033,
        "meta_mean_motion_ddot": 0,
        "tle_line1": "1 66732U 25276BU  25355.51128887  .00083033  00000+0  41160-2 0  9996",
        "tle_line2": "2 66732  97.4354  67.1071 0002538 213.9664 146.1407 15.17382579  3452"
      },
      "geometry": {
        "type": "Point",
        "coordinates": [
          -116.95805147640068,
          -30.94852915277982
        ]
      }
    },
    {
      "type": "Feature",
      "properties": {
        "norad_id": 66733,
        "name": "FLOCK 4H-30",
        "group": "last-30-days",
        "lat": -33.70280020708735,
        "lon": -117.36723318175906,
        "alt_km": 505.4000355498174,
        "timestamp": "2025-12-21T22:41:40.164769+00:00",
        "meta_object_name": "FLOCK 4H-30",
        "meta_object_id": "2025-276BV",
        "meta_epoch": "2025-12-21T04:21:52.000704",
        "meta_mean_motion": 15.187439,
        "meta_eccentricity": 0.0012795,
        "meta_inclination": 97.3836,
        "meta_ra_of_asc_node": 66.8483,
        "meta_arg_of_pericenter": 220.041,
        "meta_mean_anomaly": 139.9882,
        "meta_ephemeris_type": 0,
        "meta_classification_type": "U",
        "meta_norad_cat_id": 66733,
        "meta_element_set_no": 999,
        "meta_rev_at_epoch": 340,
        "meta_bstar": 0.017442,
        "meta_mean_motion_dot": 0.00381895,
        "meta_mean_motion_ddot": 0,
        "tle_line1": "1 66733U 25276BV  25355.18185186  .00381895  00000+0  17442-1 0  9997",
        "tle_line2": "2 66733  97.3836  66.8483 0012795 220.0410 139.9882 15.18743900  3406"
      },
      "geometry": {
        "type": "Point",
        "coordinates": [
          -117.36723318175906,
          -33.70280020708735
        ]
      }
    },
    {
      "type": "Feature",
      "properties": {
        "norad_id": 66734,
        "name": "FLOCK 4H-31",
        "group": "last-30-days",
        "lat": -25.327066222512787,
        "lon": -116.01466508048978,
        "alt_km": 519.597234873072,
        "timestamp": "2025-12-21T22:41:40.164779+00:00",
        "meta_object_name": "FLOCK 4H-31",
        "meta_object_id": "2025-276BW",
        "meta_epoch": "2025-12-21T10:42:41.150304",
        "meta_mean_motion": 15.17198452,
        "meta_eccentricity": 0.00026071,
        "meta_inclination": 97.4378,
        "meta_ra_of_asc_node": 67.04,
        "meta_arg_of_pericenter": 284.9602,
        "meta_mean_anomaly": 75.1343,
        "meta_ephemeris_type": 0,
        "meta_classification_type": "U",
        "meta_norad_cat_id": 66734,
        "meta_element_set_no": 999,
        "meta_rev_at_epoch": 344,
        "meta_bstar": 0.00060947673,
        "meta_mean_motion_dot": 0.00012056,
        "meta_mean_motion_ddot": 0,
        "tle_line1": "1 66734U 25276BW  25355.44630961  .00012056  00000+0  60948-3 0  9994",
        "tle_line2": "2 66734  97.4378  67.0400 0002607 284.9602  75.1343 15.17198452  3446"
      },
      "geometry": {
        "type": "Point",
        "coordinates": [
          -116.01466508048978,
          -25.327066222512787
        ]
      }
    },
    {
      "type": "Feature",
      "properties": {
        "norad_id": 66735,
        "name": "FLOCK 4H-32",
        "group": "last-30-days",
        "lat": -22.95292401623569,
        "lon": -115.62636627903758,
        "alt_km": 518.6511692235754,
        "timestamp": "2025-12-21T22:41:40.164789+00:00",
        "meta_object_name": "FLOCK 4H-32",
        "meta_object_id": "2025-276BX",
        "meta_epoch": "2025-12-21T10:43:18.978816",
        "meta_mean_motion": 15.17204683,
        "meta_eccentricity": 0.00034896,
        "meta_inclination": 97.4434,
        "meta_ra_of_asc_node": 67.0576,
        "meta_arg_of_pericenter": 266.5351,
        "meta_mean_anomaly": 93.5484,
        "meta_ephemeris_type": 0,
        "meta_classification_type": "U",
        "meta_norad_cat_id": 66735,
        "meta_element_set_no": 999,
        "meta_rev_at_epoch": 344,
        "meta_bstar": 0.00036111235,
        "meta_mean_motion_dot": 7.113e-05,
        "meta_mean_motion_ddot": 0,
        "tle_line1": "1 66735U 25276BX  25355.44674744  .00007113  00000+0  36111-3 0  9995",
        "tle_line2": "2 66735  97.4434  67.0576 0003489 266.5351  93.5484 15.17204683  3444"
      },
      "geometry": {
        "type": "Point",
        "coordinates": [
          -115.62636627903758,
          -22.95292401623569
        ]
      }
    },
    {
      "type": "Feature",
      "properties": {
        "norad_id": 66736,
        "name": "FLOCK 4H-33",
        "group": "last-30-days",
        "lat": -68.40877632161438,
        "lon": 86.87444133991251,
        "alt_km": 519.4048750902284,
        "timestamp": "2025-12-21T22:41:40.164804+00:00",
        "meta_object_name": "FLOCK 4H-33",
        "meta_object_id": "2025-276BY",
        "meta_epoch": "2025-12-21T11:55:43.691808",
        "meta_mean_motion": 15.18263815,
        "meta_eccentricity": 0.00024845,
        "meta_inclination": 97.4434,
        "meta_ra_of_asc_node": 67.1427,
        "meta_arg_of_pericenter": 163.8436,
        "meta_mean_anomaly": 196.2877,
        "meta_ephemeris_type": 0,
        "meta_classification_type": "U",
        "meta_norad_cat_id": 66736,
        "meta_element_set_no": 999,
        "meta_rev_at_epoch": 345,
        "meta_bstar": 0.00045633594,
        "meta_mean_motion_dot": 9.287e-05,
        "meta_mean_motion_ddot": 0,
        "tle_line1": "1 66736U 25276BY  25355.49703347  .00009287  00000+0  45634-3 0  9997",
        "tle_line2": "2 66736  97.4434  67.1427 0002484 163.8436 196.2877 15.18263815  3459"
      },
      "geometry": {
        "type": "Point",
        "coordinates": [
          86.87444133991251,
          -68.40877632161438
        ]
      }
    },
    {
      "type": "Feature",
      "properties": {
        "norad_id": 66737,
        "name": "FLOCK 4H-34",
        "group": "last-30-days",
        "lat": -76.23490462924501,
        "lon": 99.84559186280862,
        "alt_km": 519.3821232590453,
        "timestamp": "2025-12-21T22:41:40.164814+00:00",
        "meta_object_name": "FLOCK 4H-34",
        "meta_object_id": "2025-276BZ",
        "meta_epoch": "2025-12-21T07:13:13.910880",
        "meta_mean_motion": 15.18128308,
        "meta_eccentricity": 0.00024625,
        "meta_inclination": 97.4446,
        "meta_ra_of_asc_node": 66.9512,
        "meta_arg_of_pericenter": 174.4508,
        "meta_mean_anomaly": 185.6754,
        "meta_ephemeris_type": 0,
        "meta_classification_type": "U",
        "meta_norad_cat_id": 66737,
        "meta_element_set_no": 999,
        "meta_rev_at_epoch": 267,
        "meta_bstar": 0.00031399188,
        "meta_mean_motion_dot": 6.342e-05,
        "meta_mean_motion_ddot": 0,
        "tle_line1": "1 66737U 25276BZ  25355.30085545  .00006342  00000+0  31399-3 0  9993",
        "tle_line2": "2 66737  97.4446  66.9512 0002462 174.4508 185.6754 15.18128308  2675"
      },
      "geometry": {
        "type": "Point",
        "coordinates": [
          99.84559186280862,
          -76.23490462924501
        ]
      }
    }
  ]
}